H1 CPF  1  DGF 2022 06 21 04  6721 larets     NONE      
H2   304206 5557    27944 2022 06 13 00 00 00 2022 06 20 00 00 00    30 1 1  0 0 0
H5  0.0650
H9
10 0 59744  64800.000000  0       1137728.211      -3499841.740      -6028918.820
10 0 59744  64830.000000  0       1013944.014      -3343533.653      -6138526.739
10 0 59744  64860.000000  0        889828.815      -3183308.073      -6241892.158
10 0 59744  64890.000000  0        765524.788      -3019325.930      -6338910.598
10 0 59744  64920.000000  0        641173.557      -2851752.518      -6429484.007
10 0 59744  64950.000000  0        516916.025      -2680757.317      -6513520.859
10 0 59744  64980.000000  0        392892.227      -2506513.826      -6590936.236
10 0 59744  65010.000000  0        269241.168      -2329199.384      -6661651.910
10 0 59744  65040.000000  0        146100.673      -2148994.988      -6725596.414
10 0 59744  65070.000000  0         23607.232      -1966085.107      -6782705.111
10 0 59744  65100.000000  0        -98104.142      -1780657.498      -6832920.253
10 0 59744  65130.000000  0       -218900.066      -1592903.009      -6876191.038
10 0 59744  65160.000000  0       -338648.924      -1403015.385      -6912473.655
10 0 59744  65190.000000  0       -457221.013      -1211191.071      -6941731.327
10 0 59744  65220.000000  0       -574488.679      -1017629.008      -6963934.344
10 0 59744  65250.000000  0       -690326.453       -822530.432      -6979060.095
10 0 59744  65280.000000  0       -804611.186       -626098.662      -6987093.082
10 0 59744  65310.000000  0       -917222.175       -428538.896      -6988024.944
10 0 59744  65340.000000  0      -1028041.294       -230057.998      -6981854.453
10 0 59744  65370.000000  0      -1136953.115        -30864.286      -6968587.525
10 0 59744  65400.000000  0      -1243845.026        168832.685      -6948237.210
10 0 59744  65430.000000  0      -1348607.344        368822.333      -6920823.688
10 0 59744  65460.000000  0      -1451133.436        568893.279      -6886374.249
10 0 59744  65490.000000  0      -1551319.817        768833.561      -6844923.270
10 0 59744  65520.000000  0      -1649066.258        968430.862      -6796512.180
10 0 59744  65550.000000  0      -1744275.883       1167472.730      -6741189.428
10 0 59744  65580.000000  0      -1836855.268       1365746.798      -6679010.432
10 0 59744  65610.000000  0      -1926714.530       1563041.008      -6610037.535
10 0 59744  65640.000000  0      -2013767.417       1759143.836      -6534339.953
10 0 59744  65670.000000  0      -2097931.392       1953844.517      -6451993.712
10 0 59744  65700.000000  0      -2179127.720       2146933.276      -6363081.583
10 0 59744  65730.000000  0      -2257281.535       2338201.557      -6267692.997
10 0 59744  65760.000000  0      -2332321.915       2527442.244      -6165923.967
10 0 59744  65790.000000  0      -2404181.943       2714449.886      -6057876.996
10 0 59744  65820.000000  0      -2472798.771       2899020.925      -5943660.982
10 0 59744  65850.000000  0      -2538113.678       3080953.913      -5823391.123
10 0 59744  65880.000000  0      -2600072.120       3260049.743      -5697188.805
10 0 59744  65910.000000  0      -2658623.780       3436111.866      -5565181.486
10 0 59744  65940.000000  0      -2713722.612       3608946.514      -5427502.579
10 0 59744  65970.000000  0      -2765326.877       3778362.918      -5284291.320
10 0 59744  66000.000000  0      -2813399.177       3944173.524      -5135692.633
10 0 59744  66030.000000  0      -2857906.481       4106194.205      -4981856.992
10 0 59744  66060.000000  0      -2898820.147       4264244.473      -4822940.268
10 0 59744  66090.000000  0      -2936115.941       4418147.688      -4659103.581
10 0 59744  66120.000000  0      -2969774.044       4567731.257      -4490513.137
10 0 59744  66150.000000  0      -2999779.063       4712826.836      -4317340.061
10 0 59744  66180.000000  0      -3026120.025       4853270.527      -4139760.231
10 0 59744  66210.000000  0      -3048790.377       4988903.066      -3957954.095
10 0 59744  66240.000000  0      -3067787.969       5119570.004      -3772106.499
10 0 59744  66270.000000  0      -3083115.045       5245121.898      -3582406.502
10 0 59744  66300.000000  0      -3094778.220       5365414.486      -3389047.188
10 0 59744  66330.000000  0      -3102788.461       5480308.864      -3192225.471
10 0 59744  66360.000000  0      -3107161.049       5589671.657      -2992141.892
10 0 59744  66390.000000  0      -3107915.549       5693375.180      -2789000.414
10 0 59744  66420.000000  0      -3105075.768       5791297.594      -2583008.215
10 0 59744  66450.000000  0      -3098669.705       5883323.063      -2374375.471
10 0 59744  66480.000000  0      -3088729.502       5969341.892      -2163315.138
10 0 59744  66510.000000  0      -3075291.381       6049250.670      -1950042.726
10 0 59744  66540.000000  0      -3058395.586       6122952.394      -1734776.079
10 0 59744  66570.000000  0      -3038086.307       6190356.589      -1517735.142
10 0 59744  66600.000000  0      -3014411.618       6251379.422      -1299141.735
10 0 59744  66630.000000  0      -2987423.394       6305943.811      -1079219.324
10 0 59744  66660.000000  0      -2957177.236       6353979.520       -858192.789
10 0 59744  66690.000000  0      -2923732.381       6395423.259       -636288.191
10 0 59744  66720.000000  0      -2887151.622       6430218.779       -413732.537
10 0 59744  66750.000000  0      -2847501.212       6458316.944       -190753.527
10 0 59744  66780.000000  0      -2804850.759       6479675.804         32420.685
10 0 59744  66810.000000  0      -2759273.132       6494260.652        255561.734
10 0 59744  66840.000000  0      -2710844.345       6502044.076        478441.294
10 0 59744  66870.000000  0      -2659643.446       6503005.999        700831.317
10 0 59744  66900.000000  0      -2605752.404       6497133.711        922504.283
10 0 59744  66930.000000  0      -2549255.984       6484421.886       1143233.435
10 0 59744  66960.000000  0      -2490241.628       6464872.598       1362793.019
10 0 59744  66990.000000  0      -2428799.331       6438495.327       1580958.525
10 0 59744  67020.000000  0      -2365021.512       6405306.955       1797506.917
10 0 59744  67050.000000  0      -2299002.888       6365331.755       2012216.876
10 0 59744  67080.000000  0      -2230840.336       6318601.367       2224869.022
10 0 59744  67110.000000  0      -2160632.764       6265154.772       2435246.151
10 0 59744  67140.000000  0      -2088480.972       6205038.252       2643133.456
10 0 59744  67170.000000  0      -2014487.514       6138305.344       2848318.751
10 0 59744  67200.000000  0      -1938756.562       6065016.789       3050592.688
10 0 59744  67230.000000  0      -1861393.763       5985240.468       3249748.977
10 0 59744  67260.000000  0      -1782506.102       5899051.334       3445584.595
10 0 59744  67290.000000  0      -1702201.752       5806531.329       3637900.001
10 0 59744  67320.000000  0      -1620589.939       5707769.303       3826499.333
10 0 59744  67350.000000  0      -1537780.795       5602860.914       4011190.611
10 0 59744  67380.000000  0      -1453885.216       5491908.533       4191785.933
10 0 59744  67410.000000  0      -1369014.718       5375021.134       4368101.665
10 0 59744  67440.000000  0      -1283281.288       5252314.172       4539958.636
10 0 59744  67470.000000  0      -1196797.240       5123909.459       4707182.307
10 0 59744  67500.000000  0      -1109675.066       4989935.032       4869602.948
10 0 59744  67530.000000  0      -1022027.297       4850525.015       5027055.799
10 0 59744  67560.000000  0       -933966.358       4705819.478       5179381.232
10 0 59744  67590.000000  0       -845604.434       4555964.292       5326424.907
10 0 59744  67620.000000  0       -757053.328       4401110.974       5468037.927
10 0 59744  67650.000000  0       -668424.326       4241416.526       5604076.980
10 0 59744  67680.000000  0       -579828.059       4077043.267       5734404.486
10 0 59744  67710.000000  0       -491374.368       3908158.661       5858888.724
10 0 59744  67740.000000  0       -403172.170       3734935.136       5977403.962
10 0 59744  67770.000000  0       -315329.329       3557549.901       6089830.573
10 0 59744  67800.000000  0       -227952.523       3376184.758       6196055.146
10 0 59744  67830.000000  0       -141147.127       3191025.915       6295970.590
10 0 59744  67860.000000  0        -55017.080       3002263.792       6389476.239
10 0 59744  67890.000000  0         30335.229       2810092.823       6476477.946
10 0 59744  67920.000000  0        114809.084       2614711.250       6556888.169
10 0 59744  67950.000000  0        198305.559       2416320.918       6630626.056
10 0 59744  67980.000000  0        280727.627       2215127.065       6697617.520
10 0 59744  68010.000000  0        361980.274       2011338.103       6757795.303
10 0 59744  68040.000000  0        441970.606       1805165.403       6811099.042
10 0 59744  68070.000000  0        520607.948       1596823.074       6857475.316
10 0 59744  68100.000000  0        597803.950       1386527.745       6896877.695
10 0 59744  68130.000000  0        673472.678       1174498.335       6929266.784
10 0 59744  68160.000000  0        747530.711        960955.835       6954610.253
10 0 59744  68190.000000  0        819897.231        746123.079       6972882.868
10 0 59744  68220.000000  0        890494.109        530224.513       6984066.514
10 0 59744  68250.000000  0        959245.985        313485.964       6988150.215
10 0 59744  68280.000000  0       1026080.354         96134.408       6985130.142
10 0 59744  68310.000000  0       1090927.633       -121602.271       6975009.617
10 0 59744  68340.000000  0       1153721.237       -339495.515       6957799.111
10 0 59744  68370.000000  0       1214397.646       -557316.334       6933516.233
99
